{
  "type": "FeatureCollection",
  "features": [
    {
      "type": "Feature",
      "properties": {
        "norad_id": 66482,
        "name": "STARLINK-35648",
        "group": "last-30-days",
        "lat": -4.480015356964273,
        "lon": -103.95262753004452,
        "alt_km": 414.581404557779,
        "timestamp": "2025-12-12T16:50:31.910020+00:00",
        "meta_object_name": "STARLINK-35648",
        "meta_object_id": "2025-262AC",
        "meta_epoch": "2025-12-12T06:45:58.650048",
        "meta_mean_motion": 15.50610553,
        "meta_eccentricity": 0.00017135,
        "meta_inclination": 42.9998,
        "meta_ra_of_asc_node": 73.6807,
        "meta_arg_of_pericenter": 250.6059,
        "meta_mean_anomaly": 109.4616,
        "meta_ephemeris_type": 0,
        "meta_classification_type": "U",
        "meta_norad_cat_id": 66482,
        "meta_element_set_no": 999,
        "meta_rev_at_epoch": 533,
        "meta_bstar": 0.0017097531,
        "meta_mean_motion_dot": 0.00101385,
        "meta_mean_motion_ddot": 0,
        "tle_line1": "1 66482U 25262AC  25346.28192882  .00101385  00000+0  17098-2 0  9997",
        "tle_line2": "2 66482  42.9998  73.6807 0001713 250.6059 109.4616 15.50610553  5338"
      },
      "geometry": {
        "type": "Point",
        "coordinates": [
          -103.95262753004452,
          -4.480015356964273
        ]
      }
    },
    {
      "type": "Feature",
      "properties": {
        "norad_id": 66483,
        "name": "STARLINK-35654",
        "group": "last-30-days",
        "lat": -5.789412360889081,
        "lon": -102.5348619128722,
        "alt_km": 414.75548654675276,
        "timestamp": "2025-12-12T16:50:31.910030+00:00",
        "meta_object_name": "STARLINK-35654",
        "meta_object_id": "2025-262AD",
        "meta_epoch": "2025-12-12T06:45:28.958688",
        "meta_mean_motion": 15.50613559,
        "meta_eccentricity": 0.00015246,
        "meta_inclination": 42.9996,
        "meta_ra_of_asc_node": 73.6772,
        "meta_arg_of_pericenter": 251.1786,
        "meta_mean_anomaly": 108.8909,
        "meta_ephemeris_type": 0,
        "meta_classification_type": "U",
        "meta_norad_cat_id": 66483,
        "meta_element_set_no": 999,
        "meta_rev_at_epoch": 549,
        "meta_bstar": 0.0017219808,
        "meta_mean_motion_dot": 0.00102132,
        "meta_mean_motion_ddot": 0,
        "tle_line1": "1 66483U 25262AD  25346.28158517  .00102132  00000+0  17220-2 0  9993",
        "tle_line2": "2 66483  42.9996  73.6772 0001524 251.1786 108.8909 15.50613559  5495"
      },
      "geometry": {
        "type": "Point",
        "coordinates": [
          -102.5348619128722,
          -5.789412360889081
        ]
      }
    },
    {
      "type": "Feature",
      "properties": {
        "norad_id": 66484,
        "name": "STARLINK-35371",
        "group": "last-30-days",
        "lat": -7.682094773182153,
        "lon": -100.46678266443705,
        "alt_km": 414.7055213792446,
        "timestamp": "2025-12-12T16:50:31.910040+00:00",
        "meta_object_name": "STARLINK-35371",
        "meta_object_id": "2025-262AE",
        "meta_epoch": "2025-12-11T15:17:24.038592",
        "meta_mean_motion": 15.50644165,
        "meta_eccentricity": 0.00013158,
        "meta_inclination": 43.0001,
        "meta_ra_of_asc_node": 77.4416,
        "meta_arg_of_pericenter": 288.2599,
        "meta_mean_anomaly": 71.8118,
        "meta_ephemeris_type": 0,
        "meta_classification_type": "U",
        "meta_norad_cat_id": 66484,
        "meta_element_set_no": 999,
        "meta_rev_at_epoch": 539,
        "meta_bstar": 0.0028524623,
        "meta_mean_motion_dot": 0.00171103,
        "meta_mean_motion_ddot": 0,
        "tle_line1": "1 66484U 25262AE  25345.63708378  .00171103  00000+0  28525-2 0  9992",
        "tle_line2": "2 66484  43.0001  77.4416 0001315 288.2599  71.8118 15.50644165  5390"
      },
      "geometry": {
        "type": "Point",
        "coordinates": [
          -100.46678266443705,
          -7.682094773182153
        ]
      }
    },
    {
      "type": "Feature",
      "properties": {
        "norad_id": 66485,
        "name": "STARLINK-34774",
        "group": "last-30-days",
        "lat": -18.24686818552779,
        "lon": 104.90995662865718,
        "alt_km": 444.85003594465525,
        "timestamp": "2025-12-12T16:50:31.910051+00:00",
        "meta_object_name": "STARLINK-34774",
        "meta_object_id": "2025-263A",
        "meta_epoch": "2025-12-12T06:00:00.999648",
        "meta_mean_motion": 15.40632609,
        "meta_eccentricity": 0.000191,
        "meta_inclination": 43.0005,
        "meta_ra_of_asc_node": 128.2332,
        "meta_arg_of_pericenter": 289.7666,
        "meta_mean_anomaly": 54.4135,
        "meta_ephemeris_type": 0,
        "meta_classification_type": "U",
        "meta_norad_cat_id": 66485,
        "meta_element_set_no": 999,
        "meta_rev_at_epoch": 555,
        "meta_bstar": 0.0017758607,
        "meta_mean_motion_dot": 0.0007444,
        "meta_mean_motion_ddot": 0,
        "tle_line1": "1 66485U 25263A   25346.25001157  .00074440  00000+0  17759-2 0  9997",
        "tle_line2": "2 66485  43.0005 128.2332 0001910 289.7666  54.4135 15.40632609  5552"
      },
      "geometry": {
        "type": "Point",
        "coordinates": [
          104.90995662865718,
          -18.24686818552779
        ]
      }
    },
    {
      "type": "Feature",
      "properties": {
        "norad_id": 66486,
        "name": "STARLINK-34844",
        "group": "last-30-days",
        "lat": 40.291813133591006,
        "lon": -169.13190938327656,
        "alt_km": 409.492743844351,
        "timestamp": "2025-12-12T16:50:31.910061+00:00",
        "meta_object_name": "STARLINK-34844",
        "meta_object_id": "2025-263B",
        "meta_epoch": "2025-12-12T00:00:04.999968",
        "meta_mean_motion": 15.50512945,
        "meta_eccentricity": 0.00016975,
        "meta_inclination": 43.0003,
        "meta_ra_of_asc_node": 129.4939,
        "meta_arg_of_pericenter": 278.5166,
        "meta_mean_anomaly": 191.4414,
        "meta_ephemeris_type": 0,
        "meta_classification_type": "U",
        "meta_norad_cat_id": 66486,
        "meta_element_set_no": 999,
        "meta_rev_at_epoch": 546,
        "meta_bstar": 0.0011954595,
        "meta_mean_motion_dot": 0.00070257,
        "meta_mean_motion_ddot": 0,
        "tle_line1": "1 66486U 25263B   25346.00005787  .00070257  00000+0  11955-2 0  9998",
        "tle_line2": "2 66486  43.0003 129.4939 0001697 278.5166 191.4414 15.50512945  5463"
      },
      "geometry": {
        "type": "Point",
        "coordinates": [
          -169.13190938327656,
          40.291813133591006
        ]
      }
    },
    {
      "type": "Feature",
      "properties": {
        "norad_id": 66487,
        "name": "STARLINK-34733",
        "group": "last-30-days",
        "lat": 34.285427237383836,
        "lon": 172.4523675427769,
        "alt_km": 430.09485018714895,
        "timestamp": "2025-12-12T16:50:31.910094+00:00",
        "meta_object_name": "STARLINK-34733",
        "meta_object_id": "2025-263C",
        "meta_epoch": "2025-12-12T06:00:00.999648",
        "meta_mean_motion": 15.45945111,
        "meta_eccentricity": 0.00016003,
        "meta_inclination": 42.9999,
        "meta_ra_of_asc_node": 128.0485,
        "meta_arg_of_pericenter": 271.5995,
        "meta_mean_anomaly": 148.6517,
        "meta_ephemeris_type": 0,
        "meta_classification_type": "U",
        "meta_norad_cat_id": 66487,
        "meta_element_set_no": 999,
        "meta_rev_at_epoch": 555,
        "meta_bstar": -0.04605661,
        "meta_mean_motion_dot": -0.02043822,
        "meta_mean_motion_ddot": 0,
        "tle_line1": "1 66487U 25263C   25346.25001157 -.02043822  00000+0 -46057-1 0  9995",
        "tle_line2": "2 66487  42.9999 128.0485 0001600 271.5995 148.6517 15.45945111  5551"
      },
      "geometry": {
        "type": "Point",
        "coordinates": [
          172.4523675427769,
          34.285427237383836
        ]
      }
    },
    {
      "type": "Feature",
      "properties": {
        "norad_id": 66488,
        "name": "STARLINK-35515",
        "group": "last-30-days",
        "lat": 41.28042964497668,
        "lon": -164.2104459252578,
        "alt_km": 409.30827455236886,
        "timestamp": "2025-12-12T16:50:31.910105+00:00",
        "meta_object_name": "STARLINK-35515",
        "meta_object_id": "2025-263D",
        "meta_epoch": "2025-12-12T00:00:04.999968",
        "meta_mean_motion": 15.50502124,
        "meta_eccentricity": 0.00016467,
        "meta_inclination": 43.0003,
        "meta_ra_of_asc_node": 129.4852,
        "meta_arg_of_pericenter": 273.2757,
        "meta_mean_anomaly": 200.5218,
        "meta_ephemeris_type": 0,
        "meta_classification_type": "U",
        "meta_norad_cat_id": 66488,
        "meta_element_set_no": 999,
        "meta_rev_at_epoch": 551,
        "meta_bstar": 0.0016438254,
        "meta_mean_motion_dot": 0.00097031,
        "meta_mean_motion_ddot": 0,
        "tle_line1": "1 66488U 25263D   25346.00005787  .00097031  00000+0  16438-2 0  9990",
        "tle_line2": "2 66488  43.0003 129.4852 0001646 273.2757 200.5218 15.50502124  5519"
      },
      "geometry": {
        "type": "Point",
        "coordinates": [
          -164.2104459252578,
          41.28042964497668
        ]
      }
    }
  ]
}